{"epoch":1784710044,"count":18256,"objects":[{"id":"26900","name":"INTELSAT 902","type":"PAYLOAD","l1":"1 26900U 01039A   26202.46386785 -.00000286  00000-0  00000-0 0  9996","l2":"2 26900   6.2001  71.3592 0004288  48.8711 295.8907  1.00272833 91035"},{"id":"27380","name":"INTELSAT 904","type":"PAYLOAD","l1":"1 27380U 02007A   26202.39626330 -.00000229  00000-0  00000-0 0  9997","l2":"2 27380   7.0029  68.7707 0005213  28.5165 313.0456  1.00273802 52106"},{"id":"27426","name":"DIRECTV 5 (TEMPO 1)","type":"PAYLOAD","l1":"1 27426U 02023A   26202.59452191 -.00000059  00000-0  00000-0 0  9991","l2":"2 27426   4.9634  74.8795 0003183  42.2842 286.1042  1.00271980 88463"},{"id":"27438","name":"INTELSAT 905","type":"PAYLOAD","l1":"1 27438U 02027A   26202.33516854  .00000090  00000-0  00000-0 0  9991","l2":"2 27438   6.8372  69.3839 0003544  49.6066 163.5570  1.00272095 51703"},{"id":"27445","name":"GALAXY 3C","type":"PAYLOAD","l1":"1 27445U 02030A   26202.59755525 -.00000154  00000-0  00000-0 0  9993","l2":"2 27445   3.8209  77.5342 0001823  29.5309 312.5645  1.00271383 46838"},{"id":"27513","name":"INTELSAT 906","type":"PAYLOAD","l1":"1 27513U 02041A   26202.62906459  .00000010  00000-0  00000-0 0  9999","l2":"2 27513   5.8863  72.4920 0003468  30.5032 127.0093  1.00271195 87371"},{"id":"27954","name":"HORIZONS 1 (GALAXY 13)","type":"PAYLOAD","l1":"1 27954U 03044A   26202.58663520  .00000133  00000-0  00000-0 0  9992","l2":"2 27954   1.5049  83.4139 0002078  42.0089 235.1169  1.00274149 46911"},{"id":"28358","name":"INTELSAT 1002","type":"PAYLOAD","l1":"1 28358U 04022A   26202.61601535 -.00000009  00000-0  00000-0 0  9993","l2":"2 28358   0.0567 255.3582 0000158 276.7138 348.0632  1.00272371 80900"},{"id":"28659","name":"DIRECTV 8","type":"PAYLOAD","l1":"1 28659U 05019A   26202.52148767  .00000003  00000-0  00000-0 0  9990","l2":"2 28659   0.0161  72.4594 0003174  53.0042 242.4987  1.00273041 77413"},{"id":"28702","name":"GALAXY 28 (IA 8)","type":"PAYLOAD","l1":"1 28702U 05022A   26202.39712998 -.00000201  00000-0  00000-0 0  9992","l2":"2 28702   3.3834  78.5078 0002322  38.3748 298.1444  1.00271993 52314"},{"id":"29236","name":"GALAXY 16","type":"PAYLOAD","l1":"1 29236U 06023A   26202.52538770 -.00000125  00000-0  00000-0 0  9991","l2":"2 29236   0.0258 134.1522 0002762 347.5281 267.7282  1.00271709 73319"},{"id":"29494","name":"DIRECTV 9S","type":"PAYLOAD","l1":"1 29494U 06043A   26202.59625525 -.00000114  00000-0  00000-0 0  9999","l2":"2 29494   2.5073  80.4886 0005169  34.3471 297.9648  1.00271833 51729"},{"id":"31307","name":"GALAXY 17","type":"PAYLOAD","l1":"1 31307U 07016B   26202.52816104 -.00000207  00000-0  00000-0 0  9997","l2":"2 31307   3.0559  79.4692 0003496  33.0749 291.8600  1.00272370 70143"},{"id":"32253","name":"INTELSAT 11 (PAS 11)","type":"PAYLOAD","l1":"1 32253U 07044B   26202.46880787 -.00000240  00000-0  00000-0 0  9997","l2":"2 32253   3.6524  78.2532 0004512  98.9733 265.8392  0.99053133 68793"},{"id":"32388","name":"HORIZONS 2","type":"PAYLOAD","l1":"1 32388U 07063B   26202.60171528 -.00000254  00000-0  00000-0 0  9994","l2":"2 32388   2.6886  80.2052 0003678  20.2676 341.7043  1.00272339 68160"},{"id":"32729","name":"DIRECTV 11","type":"PAYLOAD","l1":"1 32729U 08013A   26202.45407446 -.00000124  00000-0  00000-0 0  9999","l2":"2 32729   0.0059 253.4699 0000090 221.0031 249.0102  1.00271098 45932"},{"id":"32951","name":"GALAXY 18","type":"PAYLOAD","l1":"1 32951U 08024A   26202.59192190  .00000000  00000-0  00000-0 0  9992","l2":"2 32951   0.0159  46.8173 0003120  78.3026 264.3293  1.00273138 46192"},{"id":"33376","name":"GALAXY 19","type":"PAYLOAD","l1":"1 33376U 08045A   26202.59712192 -.00000137  00000-0  00000-0 0  9999","l2":"2 33376   0.0630 253.5014 0002653 238.4681 285.3410  1.00271554 65246"},{"id":"35493","name":"SIRIUS FM-5","type":"PAYLOAD","l1":"1 35493U 09034A   26202.59928860 -.00000198  00000-0  00000-0 0  9998","l2":"2 35493   0.0432 256.6959 0000832 127.5288  44.6986  1.00269756 46983"},{"id":"36097","name":"INTELSAT 14","type":"PAYLOAD","l1":"1 36097U 09064A   26202.46482118 -.00000272  00000-0  00000-0 0  9992","l2":"2 36097   0.0098  70.5016 0002510  51.8475 299.2052  1.00271620 60948"},{"id":"36106","name":"INTELSAT 15","type":"PAYLOAD","l1":"1 36106U 09067A   26202.63387117 -.00000183  00000-0  00000-0 0  9999","l2":"2 36106   0.0172  52.8180 0002337  66.1089 133.8057  1.00272323 41571"},{"id":"36131","name":"DIRECTV 12","type":"PAYLOAD","l1":"1 36131U 09075A   26202.40322435 -.00000102  00000-0  00000-0 0  9994","l2":"2 36131   0.0349 207.4484 0000257 354.9444 139.2075  1.00272457 46890"},{"id":"36397","name":"INTELSAT 16","type":"PAYLOAD","l1":"1 36397U 10006A   26202.52998105 -.00000243  00000-0  00000-0 0  9996","l2":"2 36397   0.0153 326.3367 0002702 172.6825 274.8457  1.00270744 59995"},{"id":"37185","name":"XM-5","type":"PAYLOAD","l1":"1 37185U 10053A   26202.25600182 -.00000022  00000-0  00000-0 0  9994","l2":"2 37185   0.0639 265.0101 0001167 315.7230  55.2492  1.00271974 57825"},{"id":"37238","name":"INTELSAT 17","type":"PAYLOAD","l1":"1 37238U 10065B   26202.62941126  .00000000  00000-0  00000-0 0  9998","l2":"2 37238   0.0137  99.3462 0002578  35.0685  97.5654  1.00272998 53594"},{"id":"37392","name":"INTELSAT NEW DAWN","type":"PAYLOAD","l1":"1 37392U 11016A   26202.39617663 -.00000225  00000-0  00000-0 0  9996","l2":"2 37392   1.8924  82.2089 0003957  42.7581 285.1026  1.00271432 53620"},{"id":"37834","name":"INTELSAT 18","type":"PAYLOAD","l1":"1 37834U 11056A   26202.58065517  .00000054  00000-0  00000-0 0  9996","l2":"2 37834   0.0173 304.0542 0001958 181.7952 202.5115  1.00271473 54158"},{"id":"38098","name":"INTELSAT 22","type":"PAYLOAD","l1":"1 38098U 12011A   26202.63062461 -.00000057  00000-0  00000-0 0  9996","l2":"2 38098   0.0029 349.8655 0002006 152.5194  96.1253  1.00271445  7531"},{"id":"38356","name":"INTELSAT 19","type":"PAYLOAD","l1":"1 38356U 12030A   26202.57788182 -.00000055  00000-0  00000-0 0  9990","l2":"2 38356   0.0177  46.9645 0003125  72.8930 193.5057  1.00272948 50790"},{"id":"38740","name":"INTELSAT 20","type":"PAYLOAD","l1":"1 38740U 12043A   26202.62984459 -.00000023  00000-0  00000-0 0  9997","l2":"2 38740   0.0152  76.5840 0001391 107.7604  50.2866  1.00271803 51095"},{"id":"38749","name":"INTELSAT 21","type":"PAYLOAD","l1":"1 38749U 12045A   26202.53353440 -.00000283  00000-0  00000-0 0  9996","l2":"2 38749   0.0392 252.2584 0001844 237.6549 303.4534  1.00271281 50861"}]}